MALLIGYONG-1            
1 58400U 23179A   24076.87559467  .00005155  00000+0  23246-3 0  9994
2 58400  97.4164 325.1030 0008379 217.3374 142.7280 15.21430759 17681
